[{"OBJECT_NAME":"STARLINK-2143","OBJECT_ID":"2021-017M","EPOCH":"2025-09-03T13:22:36.689376","MEAN_MOTION":15.06376024,"ECCENTRICITY":2.45e-5,"INCLINATION":53.0563,"RA_OF_ASC_NODE":341.6883,"ARG_OF_PERICENTER":244.8289,"MEAN_ANOMALY":115.2675,"EPHEMERIS_TYPE":0,"CLASSIFICATION_TYPE":"U","NORAD_CAT_ID":47733,"ELEMENT_SET_NO":999,"REV_AT_EPOCH":24943,"BSTAR":0.0014863714,"MEAN_MOTION_DOT":0.00021913,"MEAN_MOTION_DDOT":0},{"OBJECT_NAME":"STARLINK-2144","OBJECT_ID":"2021-017N","EPOCH":"2025-09-03T12:14:57.816096","MEAN_MOTION":15.06392472,"ECCENTRICITY":0.00018218,"INCLINATION":53.0572,"RA_OF_ASC_NODE":331.898,"ARG_OF_PERICENTER":97.2189,"MEAN_ANOMALY":262.9007,"EPHEMERIS_TYPE":0,"CLASSIFICATION_TYPE":"U","NORAD_CAT_ID":47734,"ELEMENT_SET_NO":999,"REV_AT_EPOCH":24953,"BSTAR":0.0003738836,"MEAN_MOTION_DOT":5.291e-5,"MEAN_MOTION_DDOT":0},{"OBJECT_NAME":"STARLINK-2147","OBJECT_ID":"2021-017Q","EPOCH":"2025-09-03T11:28:30.231552","MEAN_MOTION":15.06400821,"ECCENTRICITY":0.00018664,"INCLINATION":53.0551,"RA_OF_ASC_NODE":322.0464,"ARG_OF_PERICENTER":87.2303,"MEAN_ANOMALY":272.8899,"EPHEMERIS_TYPE":0,"CLASSIFICATION_TYPE":"U","NORAD_CAT_ID":47736,"ELEMENT_SET_NO":999,"REV_AT_EPOCH":24970,"BSTAR":0.00040984284,"MEAN_MOTION_DOT":5.828e-5,"MEAN_MOTION_DDOT":0},{"OBJECT_NAME":"STARLINK-2150","OBJECT_ID":"2021-017T","EPOCH":"2025-09-03T12:58:04.175040","MEAN_MOTION":15.06379513,"ECCENTRICITY":0.00015249,"INCLINATION":53.0549,"RA_OF_ASC_NODE":346.7685,"ARG_OF_PERICENTER":75.8583,"MEAN_ANOMALY":284.2576,"EPHEMERIS_TYPE":0,"CLASSIFICATION_TYPE":"U","NORAD_CAT_ID":47739,"ELEMENT_SET_NO":999,"REV_AT_EPOCH":24936,"BSTAR":0.0014031065,"MEAN_MOTION_DOT":0.00020668,"MEAN_MOTION_DDOT":0},{"OBJECT_NAME":"STARLINK-2156","OBJECT_ID":"2021-017W","EPOCH":"2025-09-03T11:33:48.586176","MEAN_MOTION":15.06397987,"ECCENTRICITY":0.00014518,"INCLINATION":53.0549,"RA_OF_ASC_NODE":322.0325,"ARG_OF_PERICENTER":79.3112,"MEAN_ANOMALY":280.8041,"EPHEMERIS_TYPE":0,"CLASSIFICATION_TYPE":"U","NORAD_CAT_ID":47742,"ELEMENT_SET_NO":999,"REV_AT_EPOCH":24970,"BSTAR":0.00031129347,"MEAN_MOTION_DOT":4.358e-5,"MEAN_MOTION_DDOT":0},{"OBJECT_NAME":"STARLINK-2159","OBJECT_ID":"2021-017Z","EPOCH":"2025-09-03T12:20:15.387936","MEAN_MOTION":15.06398956,"ECCENTRICITY":0.00013179,"INCLINATION":53.0555,"RA_OF_ASC_NODE":331.8872,"ARG_OF_PERICENTER":100.8397,"MEAN_ANOMALY":259.274,"EPHEMERIS_TYPE":0,"CLASSIFICATION_TYPE":"U","NORAD_CAT_ID":47745,"ELEMENT_SET_NO":999,"REV_AT_EPOCH":24951,"BSTAR":-2.6601428e-5,"MEAN_MOTION_DOT":-6.78e-6,"MEAN_MOTION_DDOT":0},{"OBJECT_NAME":"STARLINK-2160","OBJECT_ID":"2021-017AA","EPOCH":"2025-09-03T12:09:38.615616","MEAN_MOTION":15.06390857,"ECCENTRICITY":0.0002059,"INCLINATION":53.0554,"RA_OF_ASC_NODE":331.9175,"ARG_OF_PERICENTER":92.9284,"MEAN_ANOMALY":267.1941,"EPHEMERIS_TYPE":0,"CLASSIFICATION_TYPE":"U","NORAD_CAT_ID":47746,"ELEMENT_SET_NO":999,"REV_AT_EPOCH":24950,"BSTAR":0.0012582044,"MEAN_MOTION_DOT":0.00018504,"MEAN_MOTION_DDOT":0},{"OBJECT_NAME":"STARLINK-2161","OBJECT_ID":"2021-017AB","EPOCH":"2025-09-03T21:38:53.585376","MEAN_MOTION":15.06392898,"ECCENTRICITY":0.00011587,"INCLINATION":53.0551,"RA_OF_ASC_NODE":320.1448,"ARG_OF_PERICENTER":69.7467,"MEAN_ANOMALY":290.3647,"EPHEMERIS_TYPE":0,"CLASSIFICATION_TYPE":"U","NORAD_CAT_ID":47747,"ELEMENT_SET_NO":999,"REV_AT_EPOCH":24974,"BSTAR":0.0010601115,"MEAN_MOTION_DOT":0.00015541,"MEAN_MOTION_DDOT":0},{"OBJECT_NAME":"STARLINK-2162","OBJECT_ID":"2021-017AC","EPOCH":"2025-09-03T11:55:03.789696","MEAN_MOTION":15.06362356,"ECCENTRICITY":0.00014245,"INCLINATION":53.0543,"RA_OF_ASC_NODE":321.9631,"ARG_OF_PERICENTER":84.4673,"MEAN_ANOMALY":275.6478,"EPHEMERIS_TYPE":0,"CLASSIFICATION_TYPE":"U","NORAD_CAT_ID":47748,"ELEMENT_SET_NO":999,"REV_AT_EPOCH":24965,"BSTAR":-0.00026894578,"MEAN_MOTION_DOT":-4.281e-5,"MEAN_MOTION_DDOT":0},{"OBJECT_NAME":"STARLINK-2163","OBJECT_ID":"2021-017AD","EPOCH":"2025-09-03T21:49:31.279584","MEAN_MOTION":15.063902,"ECCENTRICITY":7.862e-5,"INCLINATION":53.0561,"RA_OF_ASC_NODE":320.1112,"ARG_OF_PERICENTER":67.6164,"MEAN_ANOMALY":292.4908,"EPHEMERIS_TYPE":0,"CLASSIFICATION_TYPE":"U","NORAD_CAT_ID":47749,"ELEMENT_SET_NO":999,"REV_AT_EPOCH":24971,"BSTAR":5.65385e-7,"MEAN_MOTION_DOT":-2.73e-6,"MEAN_MOTION_DDOT":0},{"OBJECT_NAME":"STARLINK-2164","OBJECT_ID":"2021-017AE","EPOCH":"2025-09-03T11:44:25.450080","MEAN_MOTION":15.06400202,"ECCENTRICITY":0.00014104,"INCLINATION":53.0551,"RA_OF_ASC_NODE":321.9941,"ARG_OF_PERICENTER":80.1727,"MEAN_ANOMALY":279.9422,"EPHEMERIS_TYPE":0,"CLASSIFICATION_TYPE":"U","NORAD_CAT_ID":47750,"ELEMENT_SET_NO":999,"REV_AT_EPOCH":24965,"BSTAR":0.00044791425,"MEAN_MOTION_DOT":6.396e-5,"MEAN_MOTION_DDOT":0},{"OBJECT_NAME":"STARLINK-2169","OBJECT_ID":"2021-017AG","EPOCH":"2025-09-03T11:41:07.356480","MEAN_MOTION":15.06407694,"ECCENTRICITY":0.00016638,"INCLINATION":53.0552,"RA_OF_ASC_NODE":327.0061,"ARG_OF_PERICENTER":90.9353,"MEAN_ANOMALY":269.1827,"EPHEMERIS_TYPE":0,"CLASSIFICATION_TYPE":"U","NORAD_CAT_ID":47752,"ELEMENT_SET_NO":999,"REV_AT_EPOCH":24963,"BSTAR":0.00075147449,"MEAN_MOTION_DOT":0.00010932,"MEAN_MOTION_DDOT":0},{"OBJECT_NAME":"STARLINK-2170","OBJECT_ID":"2021-017AH","EPOCH":"2025-09-03T17:28:06.790368","MEAN_MOTION":15.06392592,"ECCENTRICITY":0.00011278,"INCLINATION":53.056,"RA_OF_ASC_NODE":330.9247,"ARG_OF_PERICENTER":75.1124,"MEAN_ANOMALY":284.999,"EPHEMERIS_TYPE":0,"CLASSIFICATION_TYPE":"U","NORAD_CAT_ID":47753,"ELEMENT_SET_NO":999,"REV_AT_EPOCH":24959,"BSTAR":0.0005473422,"MEAN_MOTION_DOT":7.879e-5,"MEAN_MOTION_DDOT":0},{"OBJECT_NAME":"STARLINK-2171","OBJECT_ID":"2021-017AJ","EPOCH":"2025-09-03T11:59:02.057568","MEAN_MOTION":15.06393547,"ECCENTRICITY":0.00015297,"INCLINATION":53.0553,"RA_OF_ASC_NODE":331.9538,"ARG_OF_PERICENTER":96.1857,"MEAN_ANOMALY":263.9306,"EPHEMERIS_TYPE":0,"CLASSIFICATION_TYPE":"U","NORAD_CAT_ID":47754,"ELEMENT_SET_NO":999,"REV_AT_EPOCH":24952,"BSTAR":0.00016409665,"MEAN_MOTION_DOT":2.163e-5,"MEAN_MOTION_DDOT":0},{"OBJECT_NAME":"STARLINK-2178","OBJECT_ID":"2021-017AQ","EPOCH":"2025-09-03T13:54:27.976608","MEAN_MOTION":15.06378546,"ECCENTRICITY":0.00013469,"INCLINATION":53.055,"RA_OF_ASC_NODE":341.5936,"ARG_OF_PERICENTER":104.9758,"MEAN_ANOMALY":255.1381,"EPHEMERIS_TYPE":0,"CLASSIFICATION_TYPE":"U","NORAD_CAT_ID":47760,"ELEMENT_SET_NO":999,"REV_AT_EPOCH":24941,"BSTAR":0.0015722415,"MEAN_MOTION_DOT":0.00023201,"MEAN_MOTION_DDOT":0},{"OBJECT_NAME":"STARLINK-2180","OBJECT_ID":"2021-017AS","EPOCH":"2025-09-03T15:16:04.283616","MEAN_MOTION":15.06389529,"ECCENTRICITY":0.00012041,"INCLINATION":53.0552,"RA_OF_ASC_NODE":346.3432,"ARG_OF_PERICENTER":80.1895,"MEAN_ANOMALY":279.923,"EPHEMERIS_TYPE":0,"CLASSIFICATION_TYPE":"U","NORAD_CAT_ID":47762,"ELEMENT_SET_NO":999,"REV_AT_EPOCH":24934,"BSTAR":0.00096292003,"MEAN_MOTION_DOT":0.00014086,"MEAN_MOTION_DDOT":0}]
