STARLINK-2143           
1 47733U 21017M   25246.55736909  .00021913  00000+0  14864-2 0  9998
2 47733  53.0563 341.6883 0000245 244.8289 115.2675 15.06376024249432
STARLINK-2144           
1 47734U 21017N   25246.51039139  .00005291  00000+0  37388-3 0  9994
2 47734  53.0572 331.8980 0001821  97.2189 262.9007 15.06392472249537
STARLINK-2147           
1 47736U 21017Q   25246.47812768  .00005828  00000+0  40984-3 0  9990
2 47736  53.0551 322.0464 0001866  87.2303 272.8899 15.06400821249707
STARLINK-2150           
1 47739U 21017T   25246.54032610  .00020668  00000+0  14031-2 0  9993
2 47739  53.0549 346.7685 0001524  75.8583 284.2576 15.06379513249363
STARLINK-2156           
1 47742U 21017W   25246.48181234  .00004358  00000+0  31129-3 0  9993
2 47742  53.0549 322.0325 0001451  79.3112 280.8041 15.06397987249703
STARLINK-2159           
1 47745U 21017Z   25246.51406699 -.00000678  00000+0 -26601-4 0  9998
2 47745  53.0555 331.8872 0001317 100.8397 259.2740 15.06398956249516
STARLINK-2160           
1 47746U 21017AA  25246.50669694  .00018504  00000+0  12582-2 0  9990
2 47746  53.0554 331.9175 0002059  92.9284 267.1941 15.06390857249505
STARLINK-2161           
1 47747U 21017AB  25246.90200909  .00015541  00000+0  10601-2 0  9993
2 47747  53.0551 320.1448 0001158  69.7467 290.3647 15.06392898249744
STARLINK-2162           
1 47748U 21017AC  25246.49657164 -.00004281  00000+0 -26895-3 0  9991
2 47748  53.0543 321.9631 0001424  84.4673 275.6478 15.06362356249652
STARLINK-2163           
1 47749U 21017AD  25246.90938981 -.00000273  00000+0  56539-6 0  9994
2 47749  53.0561 320.1112 0000786  67.6164 292.4908 15.06390200249717
STARLINK-2164           
1 47750U 21017AE  25246.48918345  .00006396  00000+0  44791-3 0  9996
2 47750  53.0551 321.9941 0001410  80.1727 279.9422 15.06400202249655
STARLINK-2169           
1 47752U 21017AG  25246.48689070  .00010932  00000+0  75147-3 0  9998
2 47752  53.0552 327.0061 0001663  90.9353 269.1827 15.06407694249632
STARLINK-2170           
1 47753U 21017AH  25246.72785637  .00007879  00000+0  54734-3 0  9997
2 47753  53.0560 330.9247 0001127  75.1124 284.9990 15.06392592249598
STARLINK-2171           
1 47754U 21017AJ  25246.49932937  .00002163  00000+0  16410-3 0  9999
2 47754  53.0553 331.9538 0001529  96.1857 263.9306 15.06393547249529
STARLINK-2178           
1 47760U 21017AQ  25246.57949047  .00023201  00000+0  15722-2 0  9995
2 47760  53.0550 341.5936 0001346 104.9758 255.1381 15.06378546249413
STARLINK-2180           
1 47762U 21017AS  25246.63616069  .00014086  00000+0  96292-3 0  9992
2 47762  53.0552 346.3432 0001204  80.1895 279.9230 15.06389529249343
